{
    "links": {
        "self": "http://www.neowsapp.com/rest/v1/neo/3760531?api_key=iIulBulltgU6a56xZRHN4H3l9WmuAYTsLGpBGhQ2"
    },
    "id": "3760531",
    "neo_reference_id": "3760531",
    "name": "(2016 TK17)",
    "designation": "2016 TK17",
    "nasa_jpl_url": "http://ssd.jpl.nasa.gov/sbdb.cgi?sstr=3760531",
    "absolute_magnitude_h": 23.3,
    "estimated_diameter": {
        "kilometers": {
            "estimated_diameter_min": 0.058150704,
            "estimated_diameter_max": 0.130028927
        },
        "meters": {
            "estimated_diameter_min": 58.1507039646,
            "estimated_diameter_max": 130.0289270043
        },
        "miles": {
            "estimated_diameter_min": 0.0361331611,
            "estimated_diameter_max": 0.0807962044
        },
        "feet": {
            "estimated_diameter_min": 190.7831555951,
            "estimated_diameter_max": 426.6041048727
        }
    },
    "is_potentially_hazardous_asteroid": false,
    "close_approach_data": [
        {
            "close_approach_date": "1961-10-31",
            "close_approach_date_full": "1961-Oct-31 03:42",
            "epoch_date_close_approach": -257804280000,
            "relative_velocity": {
                "kilometers_per_second": "13.3390089826",
                "kilometers_per_hour": "48020.4323374201",
                "miles_per_hour": "29838.0291932153"
            },
            "miss_distance": {
                "astronomical": "0.4970342871",
                "lunar": "193.3463376819",
                "kilometers": "74355270.667128477",
                "miles": "46202222.7670159026"
            },
            "orbiting_body": "Earth"
        },
        {
            "close_approach_date": "1965-10-13",
            "close_approach_date_full": "1965-Oct-13 20:28",
            "epoch_date_close_approach": -133068720000,
            "relative_velocity": {
                "kilometers_per_second": "8.4459311186",
                "kilometers_per_hour": "30405.3520271137",
                "miles_per_hour": "18892.7033192919"
            },
            "miss_distance": {
                "astronomical": "0.1894083152",
                "lunar": "73.6798346128",
                "kilometers": "28335080.514208624",
                "miles": "17606602.6025180512"
            },
            "orbiting_body": "Earth"
        },
        {
            "close_approach_date": "2016-10-18",
            "close_approach_date_full": "2016-Oct-18 01:32",
            "epoch_date_close_approach": 1476754320000,
            "relative_velocity": {
                "kilometers_per_second": "7.5032224294",
                "kilometers_per_hour": "27011.6007459378",
                "miles_per_hour": "16783.9582523857"
            },
            "miss_distance": {
                "astronomical": "0.2061091317",
                "lunar": "80.1764522313",
                "kilometers": "30833487.089869479",
                "miles": "19159040.4611336502"
            },
            "orbiting_body": "Earth"
        },
        {
            "close_approach_date": "2020-10-13",
            "close_approach_date_full": "2020-Oct-13 21:42",
            "epoch_date_close_approach": 1602625320000,
            "relative_velocity": {
                "kilometers_per_second": "9.8607725839",
                "kilometers_per_hour": "35498.7813020379",
                "miles_per_hour": "22057.5621929246"
            },
            "miss_distance": {
                "astronomical": "0.3543595976",
                "lunar": "137.8458834664",
                "kilometers": "53011441.015017112",
                "miles": "32939782.0087436656"
            },
            "orbiting_body": "Earth"
        }
    ],
    "orbital_data": {
        "orbit_id": "9",
        "orbit_determination_date": "2018-02-10 07:08:20",
        "first_observation_date": "2016-10-06",
        "last_observation_date": "2016-11-28",
        "data_arc_in_days": 53,
        "observations_used": 33,
        "orbit_uncertainty": "5",
        "minimum_orbit_intersection": ".203102",
        "jupiter_tisserand_invariant": "3.241",
        "epoch_osculation": "2459000.5",
        "eccentricity": ".5212570580248015",
        "semi_major_axis": "2.498868026919735",
        "inclination": "11.5979246176146",
        "ascending_node_longitude": "198.882240602751",
        "orbital_period": "1442.824164453834",
        "perihelion_distance": "1.196315430815313",
        "perihelion_argument": "190.4801452088059",
        "aphelion_distance": "3.801420623024156",
        "perihelion_time": "2459129.246352263135",
        "mean_anomaly": "327.8764135252243",
        "mean_motion": ".2495106533901684",
        "equinox": "J2000",
        "orbit_class": {
            "orbit_class_type": "AMO",
            "orbit_class_description": "Near-Earth asteroid orbits similar to that of 1221 Amor",
            "orbit_class_range": "1.017 AU < q (perihelion) < 1.3 AU"
        }
    },
    "is_sentry_object": false
}